CHUBUSAT-3              
1 41339U 16012C   21014.57118169  .00000321  00000-0  18063-4 0  9994
2 41339  31.0123  81.7288 0013544  55.7702 304.4216 15.00578306269461
HORYU-4                 
1 41340U 16012D   21014.55452645  .00000536  00000-0  33582-4 0  9995
2 41340  31.0061  67.2480 0013850  84.3494 275.8721 15.01711732269637
OUFTI-1                 
1 41458U 16025C   21014.86188526  .00001973  00000-0  10038-3 0  9993
2 41458  98.1230 142.9996 0160133 217.1661 141.8396 15.07765395259326
E-ST@R-II               
1 41459U 16025D   21014.77361758  .00002112  00000-0  10817-3 0  9995
2 41459  98.1192 142.1326 0161717 220.0116 138.9116 15.07249975259261
AAUSAT 4                
1 41460U 16025E   21014.83184056  .00004767  00000-0  22867-3 0  9994
2 41460  98.1182 145.3430 0150301 205.9469 153.4271 15.09956763259528
AIST-2D (RS-48)         
1 41465U 16026B   21014.77077689  .00001964  00000-0  59003-4 0  9995
2 41465  97.1271 264.0016 0010164 200.0991 244.6970 15.35532878263843
SAMSAT-218D             
1 41466U 16026C   21014.79727409  .00012256  00000-0  21649-3 0  9990
2 41466  97.1676 283.5199 0006891 132.5049 299.1967 15.50469997264992
NUSAT-1 (FRESCO)        
1 41557U 16033B   21014.81459113  .00001777  00000-0  66080-4 0  9991
2 41557  97.3993 109.7000 0014720  62.7034  51.4463 15.28767966258057
NUSAT-2 (BATATA)        
1 41558U 16033C   21014.82892112  .00001979  00000-0  68855-4 0  9999
2 41558  97.4066 112.8520 0013617  59.2465  56.7071 15.30832299258211
CARTOSAT-2C             
1 41599U 16040A   21014.80125725  .00000446  00000-0  24371-4 0  9992
2 41599  97.4229  77.0516 0013508 187.6272 281.6344 15.19242915253185
SATHYABAMASAT           
1 41600U 16040B   21014.87839201  .00001879  00000-0  77121-4 0  9995
2 41600  97.2952  76.0529 0014014 154.8938 205.2984 15.25369210253738
LAPAN-A3                
1 41603U 16040E   21014.81139558  .00000168  00000-0  10880-4 0  9999
2 41603  97.2808  67.3729 0013379 174.4058 295.9638 15.19944345253249
BIROS                   
1 41604U 16040F   21014.73298301  .00000559  00000-0  27148-4 0  9992
2 41604  97.2867  72.1134 0012880 155.1272 205.0589 15.22322945253516
SWAYAM                  
1 41607U 16040J   21014.67420162  .00001748  00000-0  72563-4 0  9992
2 41607  97.2910  74.8158 0013524 155.4269 204.7616 15.25071907253607
BEESAT-4                
1 41619U 16040W   21014.60547489  .00001669  00000-0  70031-4 0  9990
2 41619  97.2930  74.8895 0011746 148.0376 212.1576 15.24789978241564
3CAT-2                  
1 41732U 16051B   21014.74946344  .00001752  00000-0  66193-4 0  9993
2 41732  97.3783 296.4178 0012580 339.7076  72.2525 15.28288418246028
PRATHAM                 
1 41783U 16059A   21014.72895058  .00000062  00000-0  21145-4 0  9991
2 41783  97.9885  69.9133 0033730  13.0222 347.1844 14.63105043229773
ALSAT 1N                
1 41789U 16059G   21014.76834973  .00000075  00000-0  23090-4 0  9995
2 41789  97.9927  73.2740 0028297 359.7579   0.3595 14.64379645229958
LISHUI 1-01             
1 41845U 16066E   21014.79027497  .00007907  00000-0  10171-2 0  9999
2 41845  98.7307 110.2976 0281471 231.9425 125.6279 14.57366688221004
CARTOSAT-2D             
1 41948U 17008A   21014.81489007  .00000519  00000-0  27869-4 0  9998
2 41948  97.4655  77.1850 0007179 350.0122  10.0975 15.19226710217050
NAYIF-1 (EO-88)         
1 42017U 17008BX  21014.64294887  .00001797  00000-0  69794-4 0  9999
2 42017  97.3366  84.9251 0004567 302.2218  57.8578 15.27363692217777
ZHUHAI-1 02 (CAS-4B)    
1 42759U 17034B   21014.77805133  .00000316  00000-0  32490-4 0  9996
2 42759  43.0186 305.8234 0011062 282.9577 169.9906 15.10041525197917
ZHUHAI-1 01 (CAS-4A)    
1 42761U 17034D   21014.77744623  .00000311  00000-0  32137-4 0  9998
2 42761  43.0200 304.9887 0011636 282.6940 170.5453 15.10122157197915
UCLSAT                  
1 42765U 17036A   21014.67249624  .00001454  00000-0  62433-4 0  9995
2 42765  97.2732  68.9615 0011174  10.1211 350.0250 15.24215625198748
NIUSAT                  
1 42766U 17036B   21014.71765286  .00001078  00000-0  49736-4 0  9991
2 42766  97.2730  65.8807 0015163   3.7851 356.3498 15.22244019197824
CARTOSAT-2E             
1 42767U 17036C   21014.89238962  .00000455  00000-0  24778-4 0  9994
2 42767  97.3953  75.5759 0010115  29.6316 330.5489 15.19262677197631
LITUANICASAT-2          
1 42768U 17036D   21014.87665524  .00002429  00000-0  99330-4 0  9990
2 42768  97.2798  69.5346 0013807 356.3761   3.7375 15.25212444198052
AALTO-1                 
1 42775U 17036L   21014.88674878  .00000890  00000-0  41563-4 0  9996
2 42775  97.2704  66.3543 0013612   3.1853 356.9467 15.22273619197832
URSA MAIOR              
1 42776U 17036M   21014.71674604  .00000957  00000-0  44171-4 0  9998
2 42776  97.2719  66.5725 0013409   3.4336 356.6990 15.22502794197822
COMPASS 2               
1 42777U 17036N   21014.86634389  .00001940  00000-0  80823-4 0  9998
2 42777  97.2782  69.8319 0011648 359.4574   0.6650 15.24836567198009
MAX VALIER SAT          
1 42778U 17036P   21014.66375049  .00000993  00000-0  44923-4 0  9990
2 42778  97.2781  68.1661 0011985   6.9182 353.2218 15.23136174197871
PEGASUS                 
1 42784U 17036V   21014.80912255  .00001307  00000-0  56988-4 0  9993
2 42784  97.2737  68.6939 0011758  10.6406 349.5078 15.23847344197950
NUDTSAT                 
1 42787U 17036Y   21014.92906630  .00002122  00000-0  86484-4 0  9999
2 42787  97.2785  70.7444 0011177   4.9531 355.1817 15.25480733197929
SUCHAI                  
1 42788U 17036Z   21014.81603964  .00001628  00000-0  68930-4 0  9998
2 42788  97.2748  69.5025 0011192   8.6191 351.5237 15.24519223198079
SKCUBE                  
1 42789U 17036AA  21014.69003316  .00001461  00000-0  62535-4 0  9990
2 42789  97.2741  69.1601 0011139   9.7027 350.4424 15.24306589197962
VZLUSAT-1               
1 42790U 17036AB  21014.85529611  .00002026  00000-0  82790-4 0  9994
2 42790  97.2771  70.6626 0010391   6.1983 353.9382 15.25455727198065
ROBUSTA-1B              
1 42792U 17036AD  21014.68169927  .00001528  00000-0  64894-4 0  9998
2 42792  97.2744  69.4736 0010716  10.2067 349.9386 15.24519444197991
D-SAT                   
1 42794U 17036AF  21014.72645224  .00000306  00000-0  31627-4 0  9995
2 42794  97.4742  42.6856 0126379  20.3033 340.3147 14.91423922194149
NORSAT 2                
1 42828U 17042D   21014.62972535  .00000190  00000-0  24121-4 0  9999
2 42828  97.4986 253.2563 0013141 302.9604  57.0352 14.91699975190809
TECHNOSAT               
1 42829U 17042E   21014.66165729  .00000309  00000-0  36379-4 0  9993
2 42829  97.4909 252.1442 0012954 304.4137  55.5857 14.91202394190761
2017-042F               
1 42830U 17042F   21014.63393488  .00000552  00000-0  58799-4 0  9997
2 42830  97.5014 254.1859 0012910 297.6930  62.2979 14.92578948190853
FLYING LAPTOP           
1 42831U 17042G   21014.77100361 -.00000163  00000-0 -11041-4 0  9998
2 42831  97.4920 252.4307 0012912 305.2643  54.7354 14.91223225190786
CORVUS BC2              
1 42846U 17042X   21014.60989117  .00000360  00000-0  40460-4 0  9994
2 42846  97.4947 254.2779 0008249 297.6094  62.4288 14.92211683190896
CORVUS BC1              
1 42847U 17042Y   21014.65824729  .00000238  00000-0  28501-4 0  9993
2 42847  97.4950 254.5327 0007841 296.7155  63.3262 14.92313281190909
SIMPL                   
1 42983U 98067NF  21014.67538223  .00005449  00000-0  61914-4 0  9997
2 42983  51.6386 319.1118 0004240 122.9741 237.1662 15.64128004183311
CZ-4C R/B               
1 43012U 17072C   21014.91480348  .00000074  00000-0  26467-4 0  9992
2 43012  98.7315  22.4170 0128600 101.7288 259.8370 14.56134353168391
RADFXSAT (FOX-1B)       
1 43017U 17073E   21014.73297049  .00000563  00000-0  48268-4 0  9998
2 43017  97.7172 284.7460 0257343  81.7953 281.2357 14.79254123170394
EAGLESAT 1              
1 43018U 17073F   21014.73269139  .00000991  00000-0  79846-4 0  9999
2 43018  97.7174 285.4038 0254522  79.1945 283.7804 14.80126776170303
ECAMSAT                 
1 43019U 98067NG  21014.85651775  .00013713  00000-0  10784-3 0  9997
2 43019  51.6408 294.9101 0004597 122.9532 237.1909 15.71820954265970
INS-1C                  
1 43116U 18004F   21014.82979009  .00001408  00000-0  60063-4 0  9992
2 43116  97.4317  90.6938 0009886  31.8542 328.3292 15.24542898167233
FLOCK 3P'-3             
1 43119U 18004J   21014.90987488  .00000907  00000-0  40535-4 0  9999
2 43119  97.4303  89.8782 0010764  38.5929 321.6075 15.23852520167193
FLOCK 3P'-2             
1 43120U 18004K   21014.72454144  .00000695  00000-0  31989-4 0  9996
2 43120  97.4309  89.5477 0010801  39.5784 320.6240 15.23588208167159
FLOCK 3P'-1             
1 43121U 18004L   21014.89575558  .00003021  00000-0  12081-3 0  9995
2 43121  97.4309  90.9614 0009994  35.4377 324.7523 15.25839213167193
FLOCK 3P'-4             
1 43122U 18004M   21014.65685741  .00000745  00000-0  34082-4 0  9992
2 43122  97.4318  89.5629 0010724  41.7248 318.4805 15.23603659167143
MICROMAS-2A             
1 43131U 18004W   21014.76768685  .00002040  00000-0  81294-4 0  9990
2 43131  97.4284  91.6673 0009453  35.2808 324.9055 15.26343201167310
PICSAT                  
1 43132U 18004X   21014.83292607  .00001618  00000-0  67294-4 0  9999
2 43132  97.4266  90.7046 0010135  38.2219 321.9736 15.25186547167267
CNUSAIL-1               
1 43133U 18004Y   21014.70238450  .00001086  00000-0  47246-4 0  9996
2 43133  97.4247  89.8468 0010311  40.2484 319.9514 15.24361989167206
2018-004Z               
1 43134U 18004Z   21014.71560221  .00001364  00000-0  57716-4 0  9994
2 43134  97.4260  90.3741 0010045  39.8091 320.3882 15.24865680167239
FOX-1D (AO-92)          
1 43137U 18004AC  21014.72469779  .00001195  00000-0  51178-4 0  9992
2 43137  97.4247  90.2544 0009894  41.1711 319.0271 15.24714132167234
